[{"OBJECT_NAME":"HAIYANG-2B","OBJECT_ID":"2018-081A","EPOCH":"2026-03-10T00:03:41.001696","MEAN_MOTION":13.79306715,"ECCENTRICITY":0.0001262,"INCLINATION":99.3339,"RA_OF_ASC_NODE":79.2399,"ARG_OF_PERICENTER":141.6934,"MEAN_ANOMALY":218.4307,"EPHEMERIS_TYPE":0,"CLASSIFICATION_TYPE":"U","NORAD_CAT_ID":43655,"ELEMENT_SET_NO":999,"REV_AT_EPOCH":37125,"BSTAR":-0.00018769625,"MEAN_MOTION_DOT":-2.37e-6,"MEAN_MOTION_DDOT":0},{"OBJECT_NAME":"VANGUARD 2","OBJECT_ID":"1959-001A","EPOCH":"2026-03-09T19:18:25.550496","MEAN_MOTION":11.90268048,"ECCENTRICITY":0.14456611,"INCLINATION":32.8708,"RA_OF_ASC_NODE":101.2249,"ARG_OF_PERICENTER":211.3482,"MEAN_ANOMALY":139.2428,"EPHEMERIS_TYPE":0,"CLASSIFICATION_TYPE":"U","NORAD_CAT_ID":11,"ELEMENT_SET_NO":999,"REV_AT_EPOCH":52362,"BSTAR":0.00053091218,"MEAN_MOTION_DOT":1.038e-5,"MEAN_MOTION_DDOT":0}]
